[{"OBJECT_NAME":"STARLINK-3671","OBJECT_ID":"2022-025S","EPOCH":"2026-03-09T05:20:16.096128","MEAN_MOTION":15.06419252,"ECCENTRICITY":0.00012793,"INCLINATION":53.0555,"RA_OF_ASC_NODE":32.9827,"ARG_OF_PERICENTER":85.7443,"MEAN_ANOMALY":274.3692,"EPHEMERIS_TYPE":0,"CLASSIFICATION_TYPE":"U","NORAD_CAT_ID":51972,"ELEMENT_SET_NO":999,"REV_AT_EPOCH":22085,"BSTAR":0.0002181368,"MEAN_MOTION_DOT":2.971e-5,"MEAN_MOTION_DDOT":0},{"OBJECT_NAME":"AZUR (GRS A)","OBJECT_ID":"1969-097A","EPOCH":"2026-03-09T21:41:10.048992","MEAN_MOTION":15.2598686,"ECCENTRICITY":0.02451425,"INCLINATION":102.6572,"RA_OF_ASC_NODE":142.7505,"ARG_OF_PERICENTER":125.1196,"MEAN_ANOMALY":237.3267,"EPHEMERIS_TYPE":0,"CLASSIFICATION_TYPE":"U","NORAD_CAT_ID":4221,"ELEMENT_SET_NO":999,"REV_AT_EPOCH":71023,"BSTAR":0.0010311441,"MEAN_MOTION_DOT":0.00065195,"MEAN_MOTION_DDOT":0}]
